ONEWEB-0387             
1 49313U 21090AL  24271.64587996  .00000162  00000+0  36750-3 0  9994
2 49313  87.9258  39.3270 0001605  86.5189 273.6128 13.20769379148294
ONEWEB-0388             
1 49314U 21090AM  24271.72063133  .00000145  00000+0  32943-3 0  9997
2 49314  87.9112  69.7729 0001615  95.1969 264.9348 13.19725709143652
ONEWEB-0389             
1 50469U 21132A   24271.58630688  .00000042  00000+0  75323-4 0  9992
2 50469  87.9116 130.8890 0001611  66.2950 293.8351 13.17747793136723
ONEWEB-0390             
1 50470U 21132B   24271.36018733  .00000105  00000+0  23696-3 0  9996
2 50470  87.9115 130.9414 0001985  73.7161 286.4189 13.17737952135405
ONEWEB-0391             
1 50471U 21132C   24271.58969452 -.00000011  00000+0 -60516-4 0  9995
2 50471  87.9124 130.8873 0001566  54.8935 305.2343 13.17728799135432
ONEWEB-0392             
1 50472U 21132D   24271.84779590  .00001901  00000+0  48688-2 0  9998
2 50472  87.9105 130.8220 0001450  59.5709 300.5566 13.17555399135508
ONEWEB-0393             
1 50473U 21132E   24271.59316759  .00000025  00000+0  30460-4 0  9992
2 50473  87.9120 130.8590 0001695  61.4380 298.6922 13.17711406135465
ONEWEB-0394             
1 50474U 21132F   24271.82683356  .00000146  00000+0  33797-3 0  9998
2 50474  87.9050 100.3235 0001551  84.0795 276.0513 13.18687505138910
